CCSDS_OMM_VERS = 2.0
CREATION_DATE  = 
ORIGINATOR     = 

OBJECT_NAME    = STARLINK-36157
OBJECT_ID      = 2025-286J
CENTER_NAME    = EARTH
REF_FRAME      = TEME
TIME_SYSTEM    = UTC
MEAN_ELEMENT_THEORY = SGP/SGP4

EPOCH          = 2025-12-15T06:00:04.999968
MEAN_MOTION    = 15.91957169
ECCENTRICITY   = .00008503
INCLINATION    = 53.1571
RA_OF_ASC_NODE = 37.9083
ARG_OF_PERICENTER = 79.5048
MEAN_ANOMALY   = 61.4315

EPHEMERIS_TYPE = 0
CLASSIFICATION_TYPE = U
NORAD_CAT_ID   = 66933
ELEMENT_SET_NO = 999
REV_AT_EPOCH   = 239
BSTAR          = -.42390218E-2
MEAN_MOTION_DOT = -.1432768E-1
MEAN_MOTION_DDOT = .58820664E-3

CCSDS_OMM_VERS = 2.0
CREATION_DATE  = 
ORIGINATOR     = 

OBJECT_NAME    = STARLINK-36153
OBJECT_ID      = 2025-286K
CENTER_NAME    = EARTH
REF_FRAME      = TEME
TIME_SYSTEM    = UTC
MEAN_ELEMENT_THEORY = SGP/SGP4

EPOCH          = 2025-12-15T06:00:04.999968
MEAN_MOTION    = 15.92016777
ECCENTRICITY   = .00008819
INCLINATION    = 53.1570
RA_OF_ASC_NODE = 37.9040
ARG_OF_PERICENTER = 86.2385
MEAN_ANOMALY   = 56.5643

EPHEMERIS_TYPE = 0
CLASSIFICATION_TYPE = U
NORAD_CAT_ID   = 66934
ELEMENT_SET_NO = 999
REV_AT_EPOCH   = 239
BSTAR          = -.42642553E-2
MEAN_MOTION_DOT = -.1445605E-1
MEAN_MOTION_DDOT = .59821385E-3

CCSDS_OMM_VERS = 2.0
CREATION_DATE  = 
ORIGINATOR     = 

OBJECT_NAME    = STARLINK-36127
OBJECT_ID      = 2025-286L
CENTER_NAME    = EARTH
REF_FRAME      = TEME
TIME_SYSTEM    = UTC
MEAN_ELEMENT_THEORY = SGP/SGP4

EPOCH          = 2025-12-15T06:00:04.999968
MEAN_MOTION    = 15.92074613
ECCENTRICITY   = .00008467
INCLINATION    = 53.1568
RA_OF_ASC_NODE = 37.8999
ARG_OF_PERICENTER = 83.5395
MEAN_ANOMALY   = 61.3846

EPHEMERIS_TYPE = 0
CLASSIFICATION_TYPE = U
NORAD_CAT_ID   = 66935
ELEMENT_SET_NO = 999
REV_AT_EPOCH   = 239
BSTAR          = -.42673404E-2
MEAN_MOTION_DOT = -.1450929E-1
MEAN_MOTION_DDOT = .60258405E-3

CCSDS_OMM_VERS = 2.0
CREATION_DATE  = 
ORIGINATOR     = 

OBJECT_NAME    = STARLINK-36160
OBJECT_ID      = 2025-286M
CENTER_NAME    = EARTH
REF_FRAME      = TEME
TIME_SYSTEM    = UTC
MEAN_ELEMENT_THEORY = SGP/SGP4

EPOCH          = 2025-12-15T06:00:04.999968
MEAN_MOTION    = 15.92127626
ECCENTRICITY   = .00008672
INCLINATION    = 53.1568
RA_OF_ASC_NODE = 37.8965
ARG_OF_PERICENTER = 80.9053
MEAN_ANOMALY   = 65.7553

EPHEMERIS_TYPE = 0
CLASSIFICATION_TYPE = U
NORAD_CAT_ID   = 66936
ELEMENT_SET_NO = 999
REV_AT_EPOCH   = 239
BSTAR          = -.42683186E-2
MEAN_MOTION_DOT = -.1455212E-1
MEAN_MOTION_DDOT = .60615034E-3

CCSDS_OMM_VERS = 2.0
CREATION_DATE  = 
ORIGINATOR     = 

OBJECT_NAME    = STARLINK-36165
OBJECT_ID      = 2025-286N
CENTER_NAME    = EARTH
REF_FRAME      = TEME
TIME_SYSTEM    = UTC
MEAN_ELEMENT_THEORY = SGP/SGP4

EPOCH          = 2025-12-15T06:00:04.999968
MEAN_MOTION    = 15.92180489
ECCENTRICITY   = .00009788
INCLINATION    = 53.1568
RA_OF_ASC_NODE = 37.8924
ARG_OF_PERICENTER = 72.7615
MEAN_ANOMALY   = 75.6766

EPHEMERIS_TYPE = 0
CLASSIFICATION_TYPE = U
NORAD_CAT_ID   = 66937
ELEMENT_SET_NO = 999
REV_AT_EPOCH   = 239
BSTAR          = -.42673902E-2
MEAN_MOTION_DOT = -.1458867E-1
MEAN_MOTION_DDOT = .60924809E-3

CCSDS_OMM_VERS = 2.0
CREATION_DATE  = 
ORIGINATOR     = 

OBJECT_NAME    = STARLINK-36155
OBJECT_ID      = 2025-286P
CENTER_NAME    = EARTH
REF_FRAME      = TEME
TIME_SYSTEM    = UTC
MEAN_ELEMENT_THEORY = SGP/SGP4

EPOCH          = 2025-12-15T06:00:04.999968
MEAN_MOTION    = 15.92236741
ECCENTRICITY   = .00008983
INCLINATION    = 53.1567
RA_OF_ASC_NODE = 37.8886
ARG_OF_PERICENTER = 81.4556
MEAN_ANOMALY   = 68.7708

EPHEMERIS_TYPE = 0
CLASSIFICATION_TYPE = U
NORAD_CAT_ID   = 66938
ELEMENT_SET_NO = 999
REV_AT_EPOCH   = 239
BSTAR          = -.42832054E-2
MEAN_MOTION_DOT = -.1468432E-1
MEAN_MOTION_DDOT = .6169068E-3

CCSDS_OMM_VERS = 2.0
CREATION_DATE  = 
ORIGINATOR     = 

OBJECT_NAME    = STARLINK-36154
OBJECT_ID      = 2025-286Q
CENTER_NAME    = EARTH
REF_FRAME      = TEME
TIME_SYSTEM    = UTC
MEAN_ELEMENT_THEORY = SGP/SGP4

EPOCH          = 2025-12-15T06:00:04.999968
MEAN_MOTION    = 15.92350886
ECCENTRICITY   = .00008981
INCLINATION    = 53.1567
RA_OF_ASC_NODE = 37.8805
ARG_OF_PERICENTER = 80.1720
MEAN_ANOMALY   = 73.9405

EPHEMERIS_TYPE = 0
CLASSIFICATION_TYPE = U
NORAD_CAT_ID   = 66939
ELEMENT_SET_NO = 999
REV_AT_EPOCH   = 239
BSTAR          = -.43000317E-2
MEAN_MOTION_DOT = -.1482804E-1
MEAN_MOTION_DDOT = .62868914E-3

CCSDS_OMM_VERS = 2.0
CREATION_DATE  = 
ORIGINATOR     = 

OBJECT_NAME    = STARLINK-36121
OBJECT_ID      = 2025-286R
CENTER_NAME    = EARTH
REF_FRAME      = TEME
TIME_SYSTEM    = UTC
MEAN_ELEMENT_THEORY = SGP/SGP4

EPOCH          = 2025-12-15T06:00:04.999968
MEAN_MOTION    = 15.92408649
ECCENTRICITY   = .00008671
INCLINATION    = 53.1565
RA_OF_ASC_NODE = 37.8768
ARG_OF_PERICENTER = 86.4910
MEAN_ANOMALY   = 69.3348

EPHEMERIS_TYPE = 0
CLASSIFICATION_TYPE = U
NORAD_CAT_ID   = 66940
ELEMENT_SET_NO = 999
REV_AT_EPOCH   = 239
BSTAR          = -.43195719E-2
MEAN_MOTION_DOT = -.1493887E-1
MEAN_MOTION_DDOT = .63766942E-3

CCSDS_OMM_VERS = 2.0
CREATION_DATE  = 
ORIGINATOR     = 

OBJECT_NAME    = STARLINK-36088
OBJECT_ID      = 2025-286S
CENTER_NAME    = EARTH
REF_FRAME      = TEME
TIME_SYSTEM    = UTC
MEAN_ELEMENT_THEORY = SGP/SGP4

EPOCH          = 2025-12-15T06:00:04.999968
MEAN_MOTION    = 15.92299513
ECCENTRICITY   = .00009416
INCLINATION    = 53.1566
RA_OF_ASC_NODE = 37.8840
ARG_OF_PERICENTER = 80.7750
MEAN_ANOMALY   = 71.5303

EPHEMERIS_TYPE = 0
CLASSIFICATION_TYPE = U
NORAD_CAT_ID   = 66941
ELEMENT_SET_NO = 999
REV_AT_EPOCH   = 239
BSTAR          = -.43080395E-2
MEAN_MOTION_DOT = -.1481617E-1
MEAN_MOTION_DDOT = .62745512E-3

CCSDS_OMM_VERS = 2.0
CREATION_DATE  = 
ORIGINATOR     = 

OBJECT_NAME    = STARLINK-36100
OBJECT_ID      = 2025-286T
CENTER_NAME    = EARTH
REF_FRAME      = TEME
TIME_SYSTEM    = UTC
MEAN_ELEMENT_THEORY = SGP/SGP4

EPOCH          = 2025-12-15T06:00:04.999968
MEAN_MOTION    = 15.92461922
ECCENTRICITY   = .00009137
INCLINATION    = 53.1565
RA_OF_ASC_NODE = 37.8731
ARG_OF_PERICENTER = 95.2768
MEAN_ANOMALY   = 62.3512

EPHEMERIS_TYPE = 0
CLASSIFICATION_TYPE = U
NORAD_CAT_ID   = 66942
ELEMENT_SET_NO = 999
REV_AT_EPOCH   = 232
BSTAR          = -.43096547E-2
MEAN_MOTION_DOT = -.14946E-1
MEAN_MOTION_DDOT = .63855869E-3

CCSDS_OMM_VERS = 2.0
CREATION_DATE  = 
ORIGINATOR     = 

OBJECT_NAME    = STARLINK-36109
OBJECT_ID      = 2025-286U
CENTER_NAME    = EARTH
REF_FRAME      = TEME
TIME_SYSTEM    = UTC
MEAN_ELEMENT_THEORY = SGP/SGP4

EPOCH          = 2025-12-15T06:00:04.999968
MEAN_MOTION    = 15.92524579
ECCENTRICITY   = .00008696
INCLINATION    = 53.1565
RA_OF_ASC_NODE = 37.8686
ARG_OF_PERICENTER = 92.0171
MEAN_ANOMALY   = 67.7451

EPHEMERIS_TYPE = 0
CLASSIFICATION_TYPE = U
NORAD_CAT_ID   = 66943
ELEMENT_SET_NO = 999
REV_AT_EPOCH   = 232
BSTAR          = -.43326132E-2
MEAN_MOTION_DOT = -.1507313E-1
MEAN_MOTION_DDOT = .64892846E-3

CCSDS_OMM_VERS = 2.0
CREATION_DATE  = 
ORIGINATOR     = 

OBJECT_NAME    = STARLINK-36112
OBJECT_ID      = 2025-286V
CENTER_NAME    = EARTH
REF_FRAME      = TEME
TIME_SYSTEM    = UTC
MEAN_ELEMENT_THEORY = SGP/SGP4

EPOCH          = 2025-12-15T06:00:04.999968
MEAN_MOTION    = 15.92576853
ECCENTRICITY   = .00009508
INCLINATION    = 53.1564
RA_OF_ASC_NODE = 37.8648
ARG_OF_PERICENTER = 86.0115
MEAN_ANOMALY   = 75.4543

EPHEMERIS_TYPE = 0
CLASSIFICATION_TYPE = U
NORAD_CAT_ID   = 66944
ELEMENT_SET_NO = 999
REV_AT_EPOCH   = 239
BSTAR          = -.43379899E-2
MEAN_MOTION_DOT = -.1513242E-1
MEAN_MOTION_DDOT = .65394227E-3

