STARLINK-36157          
1 66933U 25286J   25349.25005787 -.01432768  58821-3 -42390-2 0  9997
2 66933  53.1571  37.9083 0000850  79.5048  61.4315 15.91957169  2394
STARLINK-36153          
1 66934U 25286K   25349.25005787 -.01445605  59821-3 -42643-2 0  9994
2 66934  53.1570  37.9040 0000881  86.2385  56.5643 15.92016777  2391
STARLINK-36127          
1 66935U 25286L   25349.25005787 -.01450929  60258-3 -42673-2 0  9999
2 66935  53.1568  37.8999 0000846  83.5395  61.3846 15.92074613  2395
STARLINK-36160          
1 66936U 25286M   25349.25005787 -.01455212  60615-3 -42683-2 0  9998
2 66936  53.1568  37.8965 0000867  80.9053  65.7553 15.92127626  2390
STARLINK-36165          
1 66937U 25286N   25349.25005787 -.01458867  60925-3 -42674-2 0  9992
2 66937  53.1568  37.8924 0000978  72.7615  75.6766 15.92180489  2394
STARLINK-36155          
1 66938U 25286P   25349.25005787 -.01468432  61691-3 -42832-2 0  9999
2 66938  53.1567  37.8886 0000898  81.4556  68.7708 15.92236741  2395
STARLINK-36154          
1 66939U 25286Q   25349.25005787 -.01482804  62869-3 -43000-2 0  9995
2 66939  53.1567  37.8805 0000898  80.1720  73.9405 15.92350886  2395
STARLINK-36121          
1 66940U 25286R   25349.25005787 -.01493887  63767-3 -43196-2 0  9994
2 66940  53.1565  37.8768 0000867  86.4910  69.3348 15.92408649  2395
STARLINK-36088          
1 66941U 25286S   25349.25005787 -.01481617  62746-3 -43080-2 0  9991
2 66941  53.1566  37.8840 0000941  80.7750  71.5303 15.92299513  2394
STARLINK-36100          
1 66942U 25286T   25349.25005787 -.01494600  63856-3 -43097-2 0  9999
2 66942  53.1565  37.8731 0000913  95.2768  62.3512 15.92461922  2320
STARLINK-36109          
1 66943U 25286U   25349.25005787 -.01507313  64893-3 -43326-2 0  9993
2 66943  53.1565  37.8686 0000869  92.0171  67.7451 15.92524579  2322
STARLINK-36112          
1 66944U 25286V   25349.25005787 -.01513242  65394-3 -43380-2 0  9999
2 66944  53.1564  37.8648 0000950  86.0115  75.4543 15.92576853  2399
